start=new Date('2023-02-16T00:00:00.000Z').valueOf();
sats=[{"PERIAPSIS":"538.838","INCLINATION":"53.2173","APOAPSIS":"540.611","RCS_SIZE":"LARGE","OBJECT_ID":"2022-076Y","MEAN_MOTION_DDOT":"0.0000000000000","ELEMENT_SET_NO":"999","LAUNCH_DATE":"2022-07-07","PERIOD":"95.437","EPOCH":"2023-02-15T18:57:16.517664","OBJECT_NAME":"STARLINK-4275","CLASSIFICATION_TYPE":"U","TLE_LINE2":"2 53008  53.2173  72.5698 0001281  87.2038 272.9101 15.08846848 34085","COUNTRY_CODE":"US","DECAY_DATE":null,"MEAN_ELEMENT_THEORY":"SGP4","SITE":"AFETR","CENTER_NAME":"EARTH","SEMIMAJOR_AXIS":"6917.859","ARG_OF_PERICENTER":"87.2038","TLE_LINE1":"1 53008U 22076Y   23046.78977451  .00002763  00000-0  19160-3 0  9994","REF_FRAME":"TEME","RA_OF_ASC_NODE":"72.5698","MEAN_MOTION":"15.08846848","REV_AT_EPOCH":"3408","OBJECT_TYPE":"PAYLOAD","FILE":"3795153","BSTAR":"0.00019160000000","NORAD_CAT_ID":"53008","MEAN_ANOMALY":"272.9101","EPHEMERIS_TYPE":"0","TIME_SYSTEM":"UTC","MEAN_MOTION_DOT":"0.00002763","ECCENTRICITY":"0.00012810","GP_ID":"225553689"},{"TLE_LINE2":"2 53009  53.2159  61.7586 0001209 100.7636 259.3492 15.08853775 34710","CLASSIFICATION_TYPE":"U","OBJECT_NAME":"STARLINK-4277","EPOCH":"2023-02-15T23:16:53.197824","PERIOD":"95.437","MEAN_ELEMENT_THEORY":"SGP4","COUNTRY_CODE":"US","DECAY_DATE":null,"RCS_SIZE":"LARGE","APOAPSIS":"540.540","PERIAPSIS":"538.867","INCLINATION":"53.2159","ELEMENT_SET_NO":"999","LAUNCH_DATE":"2022-07-07","OBJECT_ID":"2022-076Z","MEAN_MOTION_DDOT":"0.0000000000000","BSTAR":"0.00094799000000","EPHEMERIS_TYPE":"0","NORAD_CAT_ID":"53009","MEAN_ANOMALY":"259.3492","TIME_SYSTEM":"UTC","REV_AT_EPOCH":"3471","FILE":"3794877","OBJECT_TYPE":"PAYLOAD","MEAN_MOTION_DOT":"0.00014837","GP_ID":"225524575","ECCENTRICITY":"0.00012090","ARG_OF_PERICENTER":"100.7636","SEMIMAJOR_AXIS":"6917.838","TLE_LINE1":"1 53009U 22076Z   23046.97006016  .00014837  00000-0  94799-3 0  9992","SITE":"AFETR","CENTER_NAME":"EARTH","MEAN_MOTION":"15.08853775","REF_FRAME":"TEME","RA_OF_ASC_NODE":"61.7586"},{"INCLINATION":"53.2173","PERIAPSIS":"539.292","RCS_SIZE":"LARGE","APOAPSIS":"540.238","MEAN_MOTION_DDOT":"0.0000000000000","OBJECT_ID":"2022-076AA","LAUNCH_DATE":"2022-07-07","ELEMENT_SET_NO":"999","PERIOD":"95.438","EPOCH":"2023-02-15T18:55:53.949504","OBJECT_NAME":"STARLINK-4263","TLE_LINE2":"2 53010  53.2173  72.5695 0000684 206.6150 153.4807 15.08833648 34083","CLASSIFICATION_TYPE":"U","DECAY_DATE":null,"COUNTRY_CODE":"US","MEAN_ELEMENT_THEORY":"SGP4","CENTER_NAME":"EARTH","SITE":"AFETR","TLE_LINE1":"1 53010U 22076AA  23046.78881886  .00000611  00000-0  56442-4 0  9998","SEMIMAJOR_AXIS":"6917.900","ARG_OF_PERICENTER":"206.6150","RA_OF_ASC_NODE":"72.5695","REF_FRAME":"TEME","MEAN_MOTION":"15.08833648","OBJECT_TYPE":"PAYLOAD","FILE":"3795153","REV_AT_EPOCH":"3408","NORAD_CAT_ID":"53010","MEAN_ANOMALY":"153.4807","EPHEMERIS_TYPE":"0","TIME_SYSTEM":"UTC","BSTAR":"0.00005644200000","ECCENTRICITY":"0.00006840","GP_ID":"225552695","MEAN_MOTION_DOT":"0.00000611"},{"LAUNCH_DATE":"2022-07-07","ELEMENT_SET_NO":"999","MEAN_MOTION_DDOT":"0.0000000000000","OBJECT_ID":"2022-076AB","APOAPSIS":"540.535","RCS_SIZE":"LARGE","INCLINATION":"53.2143","PERIAPSIS":"538.823","MEAN_ELEMENT_THEORY":"SGP4","DECAY_DATE":null,"COUNTRY_CODE":"US","TLE_LINE2":"2 53011  53.2143  62.6767 0001237  91.1205 268.9929 15.08861665 34216","CLASSIFICATION_TYPE":"U","OBJECT_NAME":"STARLINK-4265","EPOCH":"2023-02-15T18:25:26.033088","PERIOD":"95.436","MEAN_MOTION":"15.08861665","RA_OF_ASC_NODE":"62.6767","REF_FRAME":"TEME","TLE_LINE1":"1 53011U 22076AB  23046.76766242  .00029619  00000-0  18702-2 0  9999","ARG_OF_PERICENTER":"91.1205","SEMIMAJOR_AXIS":"6917.814","CENTER_NAME":"EARTH","SITE":"AFETR","GP_ID":"225552942","ECCENTRICITY":"0.00012370","MEAN_MOTION_DOT":"0.00029619","NORAD_CAT_ID":"53011","EPHEMERIS_TYPE":"0","MEAN_ANOMALY":"268.9929","TIME_SYSTEM":"UTC","BSTAR":"0.00187020000000","FILE":"3795153","OBJECT_TYPE":"PAYLOAD","REV_AT_EPOCH":"3421"},{"MEAN_MOTION_DOT":"0.00004066","ECCENTRICITY":"0.00015360","GP_ID":"225553196","BSTAR":"0.00027331000000","EPHEMERIS_TYPE":"0","NORAD_CAT_ID":"53012","TIME_SYSTEM":"UTC","MEAN_ANOMALY":"271.2286","REV_AT_EPOCH":"3408","OBJECT_TYPE":"PAYLOAD","FILE":"3795153","MEAN_MOTION":"15.08849895","REF_FRAME":"TEME","RA_OF_ASC_NODE":"72.6132","SEMIMAJOR_AXIS":"6917.850","ARG_OF_PERICENTER":"88.8883","TLE_LINE1":"1 53012U 22076AC  23046.78145725  .00004066  00000-0  27331-3 0  9997","SITE":"AFETR","CENTER_NAME":"EARTH","MEAN_ELEMENT_THEORY":"SGP4","COUNTRY_CODE":"US","DECAY_DATE":null,"OBJECT_NAME":"STARLINK-4271","CLASSIFICATION_TYPE":"U","TLE_LINE2":"2 53012  53.2150  72.6132 0001536  88.8883 271.2286 15.08849895 34088","PERIOD":"95.437","EPOCH":"2023-02-15T18:45:17.906400","ELEMENT_SET_NO":"999","LAUNCH_DATE":"2022-07-07","OBJECT_ID":"2022-076AC","MEAN_MOTION_DDOT":"0.0000000000000","RCS_SIZE":"LARGE","APOAPSIS":"540.778","PERIAPSIS":"538.653","INCLINATION":"53.2150"},{"ARG_OF_PERICENTER":"92.9587","SEMIMAJOR_AXIS":"6917.894","TLE_LINE1":"1 53013U 22076AD  23046.76030219 -.00000151  00000-0  85565-5 0  9994","SITE":"AFETR","CENTER_NAME":"EARTH","MEAN_MOTION":"15.08835498","REF_FRAME":"TEME","RA_OF_ASC_NODE":"62.7089","BSTAR":"0.00000855650000","TIME_SYSTEM":"UTC","NORAD_CAT_ID":"53013","EPHEMERIS_TYPE":"0","MEAN_ANOMALY":"267.1493","REV_AT_EPOCH":"3421","FILE":"3795153","OBJECT_TYPE":"PAYLOAD","MEAN_MOTION_DOT":"-0.00000151","GP_ID":"225553438","ECCENTRICITY":"0.00007710","RCS_SIZE":"LARGE","APOAPSIS":"540.293","PERIAPSIS":"539.226","INCLINATION":"53.2157","ELEMENT_SET_NO":"999","LAUNCH_DATE":"2022-07-07","OBJECT_ID":"2022-076AD","MEAN_MOTION_DDOT":"0.0000000000000","TLE_LINE2":"2 53013  53.2157  62.7089 0000771  92.9587 267.1493 15.08835498 34217","CLASSIFICATION_TYPE":"U","OBJECT_NAME":"STARLINK-4177","EPOCH":"2023-02-15T18:14:50.109216","PERIOD":"95.438","MEAN_ELEMENT_THEORY":"SGP4","COUNTRY_CODE":"US","DECAY_DATE":null},{"PERIAPSIS":"538.556","INCLINATION":"53.2164","APOAPSIS":"540.713","RCS_SIZE":"LARGE","OBJECT_ID":"2022-076AE","MEAN_MOTION_DDOT":"0.0000000000000","ELEMENT_SET_NO":"999","LAUNCH_DATE":"2022-07-07","PERIOD":"95.435","EPOCH":"2023-02-15T20:11:24.655776","OBJECT_NAME":"STARLINK-4183","CLASSIFICATION_TYPE":"U","TLE_LINE2":"2 53014  53.2164  62.3325 0001559  93.0244 267.0926 15.08876224 34225","COUNTRY_CODE":"US","DECAY_DATE":null,"MEAN_ELEMENT_THEORY":"SGP4","SITE":"AFETR","CENTER_NAME":"EARTH","SEMIMAJOR_AXIS":"6917.770","ARG_OF_PERICENTER":"93.0244","TLE_LINE1":"1 53014U 22076AE  23046.84125759  .00015420  00000-0  98385-3 0  9994","REF_FRAME":"TEME","RA_OF_ASC_NODE":"62.3325","MEAN_MOTION":"15.08876224","REV_AT_EPOCH":"3422","OBJECT_TYPE":"PAYLOAD","FILE":"3795153","BSTAR":"0.00098385000000","EPHEMERIS_TYPE":"0","NORAD_CAT_ID":"53014","MEAN_ANOMALY":"267.0926","TIME_SYSTEM":"UTC","MEAN_MOTION_DOT":"0.00015420","GP_ID":"225552202","ECCENTRICITY":"0.00015590"},{"OBJECT_NAME":"STARLINK-4262","TLE_LINE2":"2 53015  53.2150  62.7426 0001722  90.2411 269.8778 15.08842614 34214","CLASSIFICATION_TYPE":"U","PERIOD":"95.437","EPOCH":"2023-02-15T18:04:14.176704","MEAN_ELEMENT_THEORY":"SGP4","DECAY_DATE":null,"COUNTRY_CODE":"US","APOAPSIS":"540.929","RCS_SIZE":"LARGE","INCLINATION":"53.2150","PERIAPSIS":"538.546","LAUNCH_DATE":"2022-07-07","ELEMENT_SET_NO":"999","MEAN_MOTION_DDOT":"0.0000000000000","OBJECT_ID":"2022-076AF","NORAD_CAT_ID":"53015","EPHEMERIS_TYPE":"0","MEAN_ANOMALY":"269.8778","TIME_SYSTEM":"UTC","BSTAR":"0.00014015000000","OBJECT_TYPE":"PAYLOAD","FILE":"3795153","REV_AT_EPOCH":"3421","ECCENTRICITY":"0.00017220","GP_ID":"225552450","MEAN_MOTION_DOT":"0.00001943","TLE_LINE1":"1 53015U 22076AF  23046.75294186  .00001943  00000-0  14015-3 0  9999","SEMIMAJOR_AXIS":"6917.872","ARG_OF_PERICENTER":"90.2411","CENTER_NAME":"EARTH","SITE":"AFETR","MEAN_MOTION":"15.08842614","RA_OF_ASC_NODE":"62.7426","REF_FRAME":"TEME"},{"ECCENTRICITY":"0.00013340","GP_ID":"225553690","MEAN_MOTION_DOT":"-0.00007201","FILE":"3795153","OBJECT_TYPE":"PAYLOAD","REV_AT_EPOCH":"3421","NORAD_CAT_ID":"53016","TIME_SYSTEM":"UTC","EPHEMERIS_TYPE":"0","MEAN_ANOMALY":"293.1742","BSTAR":"-0.00043437000000","RA_OF_ASC_NODE":"62.6801","REF_FRAME":"TEME","MEAN_MOTION":"15.08875085","CENTER_NAME":"EARTH","SITE":"AFETR","TLE_LINE1":"1 53016U 22076AG  23046.76397049 -.00007201  00000-0 -43437-3 0  9998","ARG_OF_PERICENTER":"66.9391","SEMIMAJOR_AXIS":"6917.773","DECAY_DATE":null,"COUNTRY_CODE":"US","MEAN_ELEMENT_THEORY":"SGP4","EPOCH":"2023-02-15T18:20:07.050336","PERIOD":"95.435","TLE_LINE2":"2 53016  53.2159  62.6801 0001334  66.9391 293.1742 15.08875085 34215","CLASSIFICATION_TYPE":"U","OBJECT_NAME":"STARLINK-4283","MEAN_MOTION_DDOT":"0.0000000000000","OBJECT_ID":"2022-076AG","LAUNCH_DATE":"2022-07-07","ELEMENT_SET_NO":"999","INCLINATION":"53.2159","PERIAPSIS":"538.715","APOAPSIS":"540.561","RCS_SIZE":"LARGE"},{"EPOCH":"2023-02-15T17:58:56.514144","PERIOD":"95.438","TLE_LINE2":"2 53017  53.2170  62.7530 0001267  89.7217 270.3921 15.08832519 34226","CLASSIFICATION_TYPE":"U","OBJECT_NAME":"STARLINK-4281","DECAY_DATE":null,"COUNTRY_CODE":"US","MEAN_ELEMENT_THEORY":"SGP4","INCLINATION":"53.2170","PERIAPSIS":"538.892","RCS_SIZE":"LARGE","APOAPSIS":"540.645","MEAN_MOTION_DDOT":"0.0000000000000","OBJECT_ID":"2022-076AH","LAUNCH_DATE":"2022-07-07","ELEMENT_SET_NO":"999","FILE":"3795153","OBJECT_TYPE":"PAYLOAD","REV_AT_EPOCH":"3422","EPHEMERIS_TYPE":"0","NORAD_CAT_ID":"53017","MEAN_ANOMALY":"270.3921","TIME_SYSTEM":"UTC","BSTAR":"-0.00011238000000","GP_ID":"225553932","ECCENTRICITY":"0.00012670","MEAN_MOTION_DOT":"-0.00002076","CENTER_NAME":"EARTH","SITE":"AFETR","TLE_LINE1":"1 53017U 22076AH  23046.74926521 -.00002076  00000-0 -11238-3 0  9999","ARG_OF_PERICENTER":"89.7217","SEMIMAJOR_AXIS":"6917.903","RA_OF_ASC_NODE":"62.7530","REF_FRAME":"TEME","MEAN_MOTION":"15.08832519"}];
